LOGSATS                 
1 62689U 25009CJ  26068.72615147  .00266017  00000+0  19541-2 0  9995
2 62689  97.3907 158.8419 0005393 263.6729  96.3920 15.72310294 64215
STARLINK-11562 [DTC]    
1 62918U 25027M   26068.17737144  .00150118  00000+0  11520-2 0  9994
2 62918  43.0004 350.5621 0001556 246.2691 113.8013 15.70847455 63112
